#dP2018 10 13  0  0  0.00000000      96 __u+U ITR00 FIT  IAC
## 2022 518400.00000000   900.00000000 58404 0.0000000000000
+   91   C01C02C03C04C05C06C07C08C09C10C11C12C13C14E01E02E03
+        E04E05E07E08E09E11E12E14E18E19E21E24E25E26E27E30G01
+        G02G03G04G05G06G07G08G09G10G11G12G13G14G15G16G17G18
+        G19G20G21G22G23G24G25G26G27G28G29G30G31G32J01J02J03
+        R01R02R03R04R05R07R08R09R10R11R13R14R15R16R17R18R19
+        R20R21R22R23R24R26  0  0  0  0  0  0  0  0  0  0  0
++         0  0  0  0  0  0  0  0  0  0  0  0  0  0  0  0  0
++         0  0  0  0  0  0  0  0  0  0  0  0  0  0  0  0  0
++         0  0  0  0  0  0  0  0  0  0  0  0  0  0  0  0  0
++         0  0  0  0  0  0  0  0  0  0  0  0  0  0  0  0  0
++         0  0  0  0  0  0  0  0  0  0  0  0  0  0  0  0  0
++         0  0  0  0  0  0  0  0  0  0  0  0  0  0  0  0  0
%c M  cc GPS ccc cccc cccc cccc cccc ccccc ccccc ccccc ccccc
%c cc cc ccc ccc cccc cccc cccc cccc ccccc ccccc ccccc ccccc
%f  0.0000000  0.000000000  0.00000000000  0.000000000000000
%f  0.0000000  0.000000000  0.00000000000  0.000000000000000
%i    0    0    0    0      0      0      0      0         0
%i    0    0    0    0      0      0      0      0         0
/*                                                          
/*   RSA / INFORMATION & ANALYSIS CENTER (IAC) OF MCC       
/*   ULTRA-RAPID DETERMINATION                              
/* PCV:IGS14_2022 OL/AL:FES2004  NONE     YN ORB:CoN CLK:CoN
*  2018 10 13  1 15  0.00000000
PC01 -32314.548040  27053.654304    178.020877   -249.341464
PC02   4455.067411  41946.398923    636.535002    -21.449919
PC03 -14749.547527  39521.148167    297.046930   -267.808046
PC04 -39609.690863  14362.342189    177.470175    -77.091071
PC05  21853.347353  36058.262486    648.998731    233.891509
PC06 -25536.938984  29387.997919 -16307.171067    375.403451
PC07 -10773.409581  36367.169570 -17773.391101    -91.196460
PC08 -11679.741013  18804.300597  35942.398184    560.832392
PC09 -10258.917442  29105.793323 -28698.571606    193.367653
PC10   -752.075289  41530.178555  -5794.086252   -148.875331
PC11  -4747.575318 -15013.076052 -22974.075810     53.742980
PC12  16792.687302 -12889.477883 -18178.495075    147.393478
PC13   5230.633666  26822.994209  32203.574282   -322.905657
PC14   2234.260390 -24625.008642  12940.941992    590.110346
PE01 -14495.722112   8652.202545 -24304.698596   -454.826240
PE02  14487.119783  -8704.353969  24308.442523     30.967312
PE03  24675.258878 -14470.458200  -7642.264143    -87.569579
PE04 -14903.602677  23228.408242 -10697.024781   -136.494223
PE05  20034.426836   2825.985778 -21607.375381    177.972194
PE07  -3685.971449 -18414.618776  22886.915036    -55.411741
PE08  14708.840971 -23325.922084  10778.029372   6484.179672
PE09   3764.045170  18269.076973 -22976.159879   6649.571484
PE11  14852.555519  17780.485269  18412.138031   5695.085794
PE12  -7312.188581  14883.969785  24519.285903   5259.213770
PE14 -21678.740363 -11576.739174 -20558.865111   6505.591612
PE18  22142.580384   2859.085602  10032.710792   5837.114087
PE19 -24799.146394  13122.166717   9437.264896    -11.462975
PE21 -16428.278201 -14083.822850 -20196.015347   -499.201796
PE24   8796.706735  27854.533735   4820.453422   6444.635128
PE25  16432.571745  14082.247652  20202.911758   2015.036155
PE26 -27664.385111 -10356.667574  -1772.765912   5371.566502
PE27  -8546.913724 -28037.681536  -4137.738364    612.297149
PE30   4091.181487 -25877.012146  13776.601953   5437.764766
PG01 -22168.645226 -12999.196834   7133.312166    -99.714517
PG02  11761.762439  20570.484518  12792.203074    -28.363738
PG03 -14183.549887  -6025.457927  21600.924551    148.189481
PG04      0.000000      0.000000      0.000000 999999.999999
PG05   4863.144990  23092.432036 -12100.819019     -1.035174
PG06  -2855.169240  16285.086138  20812.819333    350.488971
PG07 -19249.792030    -17.852177 -18253.870197    107.786926
PG08 -15458.615491  -8810.388252 -19723.412365   -118.397906
PG09 -25517.754676   6363.824821   3711.687651    500.826202
PG10  11109.507375 -21966.295057  -9701.281526    175.092566
PG11 -24304.165359  -9988.920325  -3533.479277   -710.392482
PG12  11270.986270  11635.853415  20895.843371    300.204134
PG13   7232.840184  13694.682967 -21690.937267    -87.193196
PG14   9019.032243 -16218.380666  19237.971257    -96.750945
PG15  19554.284063   5623.163096 -17503.484988   -343.243875
PG16   -714.084159 -24045.581664 -10931.817074      4.508871
PG17 -18118.112521  14417.230135  13295.395403    -44.841377
PG18 -19576.753724 -17940.070987  -2653.958077     67.598451
PG19  -9486.570474  15434.634241  19171.429867   -394.088851
PG20  14144.329512 -14379.811243 -17347.894384    517.200121
PG21  16784.070762  -4548.800878 -19265.048120   -322.225363
PG22 -12526.764090 -14142.846528  18912.906539   -545.200305
PG23 -24018.114013   -593.931738  12070.562139   -208.833370
PG24  21925.036037  15063.359737   2476.332053    -56.672879
PG25  15358.757945  -3075.404051  21229.066544   -660.876116
PG26   4206.343456 -26141.088627   -441.266320      7.612698
PG27  -4303.490994 -14240.778525 -22082.275850     -4.540447
PG28 -13193.386687  20108.276687 -10708.559909    749.429772
PG29  25857.069555  -4012.254790   4541.335634    358.156246
PG30 -11597.075021  10470.181400 -21463.107956     11.024376
PG31   1285.111991 -17572.285052  19771.361287     87.158503
PG32  16510.065594 -15854.414444  13434.031285   -394.811586
PJ01 -28839.691599  29518.187526  13616.382132   -314.471965
PJ02 -19307.839633  21836.051707 -26228.393338      0.193963
PJ03 -30132.655437  28300.637417  13733.681279      0.265490
PR01 -17635.715738  15432.768905  10052.053584     33.374157
PR02 -10437.163038  21086.831676  -9883.003640    334.204718
PR03   2912.078265  13127.427966 -21650.552695    145.787037
PR04  14708.785054  -3002.094074 -20606.787573    279.700951
PR05  17552.758757 -16649.872026  -8047.312513     12.943231
PR07  -3338.472426 -12730.612167  21872.614500    -49.186976
PR08 -14415.523331   2306.807402  20965.001100     20.954128
PR09  -2631.802293 -22340.870602  12112.677737     33.155992
PR10 -11032.497982 -22673.099244  -4158.989056     33.400259
PR11 -13800.009763  -9648.471575 -19158.012772    -43.720572
PR13   2703.775627  21931.323699 -12743.899307    -15.620635
PR14  11181.123487  22553.210746   4088.540874     31.923576
PR15  13718.349717  13961.874804  16427.594849 999999.999999
PR16   8549.771299  -7712.311801  22737.943189    103.814173
PR17  14203.041330  10552.281553  18399.415274    171.760236
PR18  24645.707199   5231.347668   3827.197062     26.004218
PR19  21748.175176  -2472.756416 -13110.275565    -60.568457
PR20   4867.249324  -9727.471802 -23065.764859   -355.407205
PR21 -14564.567595 -10407.549288 -18158.167551     -8.554691
PR22 -25161.415775  -4308.220313  -1482.030048    -64.987502
PR23 -18799.432095   4864.270591  16526.182420    184.008236
PR24  -3369.606883  10099.077916  23152.935954   -172.482342
PR26   6363.297135  -9515.842528 -22788.973510     23.957164
EOF
